KUIPER-00104            
1 65142U 25171L   25303.83336806 -.01257029  00000+0 -58174-1 0  9997
2 65142  51.8833  17.8550 0006414  65.8380 138.6209 15.22622537  5424
KUIPER-00105            
1 65143U 25171M   25303.83336806 -.00046847  00000+0 -36472-2 0  9999
2 65143  51.8895  21.1176 0010592  31.2544 232.6840 15.00798542  5743
KUIPER-00106            
1 65144U 25171N   25302.96842136  .00011266  00000+0  10207-2 0  9994
2 65144  51.8946  28.4855 0009223  25.5086 334.6337 14.95746158 13361
KUIPER-00107            
1 65145U 25171P   25302.93659365  .00039574  00000+0  10440-2 0  9993
2 65145  51.8758  21.2094 0005102  45.6871 314.4533 15.38082596 13468
KUIPER-00108            
1 65146U 25171Q   25303.83336806 -.00026984  00000+0 -13511-2 0  9991
2 65146  51.8895  18.6199 0005886  48.6618 100.5283 15.16627680  5178
KUIPER-00109            
1 65147U 25171R   25303.83336806 -.00627639  00000+0 -22968-1 0  9991
2 65147  51.8797  17.1523 0010844  40.1290 127.0959 15.29742288  5639
KUIPER-00110            
1 65148U 25171S   25303.83336806 -.00052067  00000+0 -50386-2 0  9995
2 65148  51.8945  22.9042 0010406  39.9230  40.1605 14.92419407  2980
KUIPER-00111            
1 65149U 25171T   25303.83336806 -.00006919  00000+0 -87519-3 0  9990
2 65149  51.8983  27.3062 0009532  54.1965 115.8076 14.80088555  5850
